CCSDS_OMM_VERS = 2.0
CREATION_DATE  = 
ORIGINATOR     = 

OBJECT_NAME    = CZ-3B R/B
OBJECT_ID      = 2025-269B
CENTER_NAME    = EARTH
REF_FRAME      = TEME
TIME_SYSTEM    = UTC
MEAN_ELEMENT_THEORY = SGP/SGP4

EPOCH          = 2025-12-02T10:16:46.437600
MEAN_MOTION    = 2.02231820
ECCENTRICITY   = .75203475
INCLINATION    = 51.3575
RA_OF_ASC_NODE = 172.0321
ARG_OF_PERICENTER = 226.8728
MEAN_ANOMALY   = 39.3228

EPHEMERIS_TYPE = 0
CLASSIFICATION_TYPE = U
NORAD_CAT_ID   = 66587
ELEMENT_SET_NO = 999
REV_AT_EPOCH   = 24
BSTAR          = .19543247E-2
MEAN_MOTION_DOT = .47329E-3
MEAN_MOTION_DDOT = -.245602E-6

CCSDS_OMM_VERS = 2.0
CREATION_DATE  = 
ORIGINATOR     = 

OBJECT_NAME    = STARLINK-36076
OBJECT_ID      = 2025-270A
CENTER_NAME    = EARTH
REF_FRAME      = TEME
TIME_SYSTEM    = UTC
MEAN_ELEMENT_THEORY = SGP/SGP4

EPOCH          = 2025-12-04T02:22:17.126976
MEAN_MOTION    = 15.75495698
ECCENTRICITY   = .0003119
INCLINATION    = 42.9979
RA_OF_ASC_NODE = 244.0933
ARG_OF_PERICENTER = 251.2496
MEAN_ANOMALY   = 108.8035

EPHEMERIS_TYPE = 0
CLASSIFICATION_TYPE = U
NORAD_CAT_ID   = 66588
ELEMENT_SET_NO = 999
REV_AT_EPOCH   = 299
BSTAR          = -.38849E-2
MEAN_MOTION_DOT = -.570263E-2
MEAN_MOTION_DDOT = 0

CCSDS_OMM_VERS = 2.0
CREATION_DATE  = 
ORIGINATOR     = 

OBJECT_NAME    = STARLINK-35447
OBJECT_ID      = 2025-270B
CENTER_NAME    = EARTH
REF_FRAME      = TEME
TIME_SYSTEM    = UTC
MEAN_ELEMENT_THEORY = SGP/SGP4

EPOCH          = 2025-12-04T02:21:19.594080
MEAN_MOTION    = 15.75458714
ECCENTRICITY   = .0001698
INCLINATION    = 42.9980
RA_OF_ASC_NODE = 244.0882
ARG_OF_PERICENTER = 276.4997
MEAN_ANOMALY   = 83.5679

EPHEMERIS_TYPE = 0
CLASSIFICATION_TYPE = U
NORAD_CAT_ID   = 66589
ELEMENT_SET_NO = 999
REV_AT_EPOCH   = 310
BSTAR          = -.3915E-2
MEAN_MOTION_DOT = -.573253E-2
MEAN_MOTION_DDOT = 0

CCSDS_OMM_VERS = 2.0
CREATION_DATE  = 
ORIGINATOR     = 

OBJECT_NAME    = STARLINK-35429
OBJECT_ID      = 2025-270C
CENTER_NAME    = EARTH
REF_FRAME      = TEME
TIME_SYSTEM    = UTC
MEAN_ELEMENT_THEORY = SGP/SGP4

EPOCH          = 2025-12-04T02:21:48.612384
MEAN_MOTION    = 15.75484697
ECCENTRICITY   = .0001797
INCLINATION    = 42.9978
RA_OF_ASC_NODE = 244.0913
ARG_OF_PERICENTER = 269.8771
MEAN_ANOMALY   = 90.1893

EPHEMERIS_TYPE = 0
CLASSIFICATION_TYPE = U
NORAD_CAT_ID   = 66590
ELEMENT_SET_NO = 999
REV_AT_EPOCH   = 310
BSTAR          = -.37906E-2
MEAN_MOTION_DOT = -.556781E-2
MEAN_MOTION_DDOT = 0

CCSDS_OMM_VERS = 2.0
CREATION_DATE  = 
ORIGINATOR     = 

OBJECT_NAME    = STARLINK-36058
OBJECT_ID      = 2025-270D
CENTER_NAME    = EARTH
REF_FRAME      = TEME
TIME_SYSTEM    = UTC
MEAN_ELEMENT_THEORY = SGP/SGP4

EPOCH          = 2025-12-04T02:20:50.002080
MEAN_MOTION    = 15.75426072
ECCENTRICITY   = .0002477
INCLINATION    = 42.9981
RA_OF_ASC_NODE = 244.0858
ARG_OF_PERICENTER = 274.5012
MEAN_ANOMALY   = 85.5575

EPHEMERIS_TYPE = 0
CLASSIFICATION_TYPE = U
NORAD_CAT_ID   = 66591
ELEMENT_SET_NO = 999
REV_AT_EPOCH   = 299
BSTAR          = -.40705E-2
MEAN_MOTION_DOT = -.593875E-2
MEAN_MOTION_DDOT = 0

CCSDS_OMM_VERS = 2.0
CREATION_DATE  = 
ORIGINATOR     = 

OBJECT_NAME    = STARLINK-36066
OBJECT_ID      = 2025-270E
CENTER_NAME    = EARTH
REF_FRAME      = TEME
TIME_SYSTEM    = UTC
MEAN_ELEMENT_THEORY = SGP/SGP4

EPOCH          = 2025-12-04T03:51:39.663072
MEAN_MOTION    = 15.75283675
ECCENTRICITY   = .0002199
INCLINATION    = 42.9992
RA_OF_ASC_NODE = 243.6972
ARG_OF_PERICENTER = 265.4989
MEAN_ANOMALY   = 94.5629

EPHEMERIS_TYPE = 0
CLASSIFICATION_TYPE = U
NORAD_CAT_ID   = 66592
ELEMENT_SET_NO = 999
REV_AT_EPOCH   = 290
BSTAR          = -.29277E-2
MEAN_MOTION_DOT = -.432621E-2
MEAN_MOTION_DDOT = 0

CCSDS_OMM_VERS = 2.0
CREATION_DATE  = 
ORIGINATOR     = 

OBJECT_NAME    = STARLINK-36031
OBJECT_ID      = 2025-270F
CENTER_NAME    = EARTH
REF_FRAME      = TEME
TIME_SYSTEM    = UTC
MEAN_ELEMENT_THEORY = SGP/SGP4

EPOCH          = 2025-12-04T02:19:52.045824
MEAN_MOTION    = 15.75329439
ECCENTRICITY   = .0001821
INCLINATION    = 42.9985
RA_OF_ASC_NODE = 244.0801
ARG_OF_PERICENTER = 274.0987
MEAN_ANOMALY   = 85.9674

EPHEMERIS_TYPE = 0
CLASSIFICATION_TYPE = U
NORAD_CAT_ID   = 66593
ELEMENT_SET_NO = 999
REV_AT_EPOCH   = 299
BSTAR          = -.42228E-2
MEAN_MOTION_DOT = -.612015E-2
MEAN_MOTION_DDOT = 0

CCSDS_OMM_VERS = 2.0
CREATION_DATE  = 
ORIGINATOR     = 

OBJECT_NAME    = STARLINK-36032
OBJECT_ID      = 2025-270G
CENTER_NAME    = EARTH
REF_FRAME      = TEME
TIME_SYSTEM    = UTC
MEAN_ELEMENT_THEORY = SGP/SGP4

EPOCH          = 2025-12-04T03:46:47.462592
MEAN_MOTION    = 15.77380004
ECCENTRICITY   = .0014658
INCLINATION    = 42.9975
RA_OF_ASC_NODE = 243.6706
ARG_OF_PERICENTER = 280.4782
MEAN_ANOMALY   = 79.4436

EPHEMERIS_TYPE = 0
CLASSIFICATION_TYPE = U
NORAD_CAT_ID   = 66594
ELEMENT_SET_NO = 999
REV_AT_EPOCH   = 281
BSTAR          = .22053E-2
MEAN_MOTION_DOT = .395318E-2
MEAN_MOTION_DDOT = 0

CCSDS_OMM_VERS = 2.0
CREATION_DATE  = 
ORIGINATOR     = 

OBJECT_NAME    = STARLINK-35711
OBJECT_ID      = 2025-270H
CENTER_NAME    = EARTH
REF_FRAME      = TEME
TIME_SYSTEM    = UTC
MEAN_ELEMENT_THEORY = SGP/SGP4

EPOCH          = 2025-12-04T02:18:53.152128
MEAN_MOTION    = 15.75289023
ECCENTRICITY   = .0002268
INCLINATION    = 42.9980
RA_OF_ASC_NODE = 244.0741
ARG_OF_PERICENTER = 261.4999
MEAN_ANOMALY   = 98.5613

EPHEMERIS_TYPE = 0
CLASSIFICATION_TYPE = U
NORAD_CAT_ID   = 66595
ELEMENT_SET_NO = 999
REV_AT_EPOCH   = 310
BSTAR          = -.35171E-2
MEAN_MOTION_DOT = -.514801E-2
MEAN_MOTION_DDOT = 0

CCSDS_OMM_VERS = 2.0
CREATION_DATE  = 
ORIGINATOR     = 

OBJECT_NAME    = STARLINK-35811
OBJECT_ID      = 2025-270J
CENTER_NAME    = EARTH
REF_FRAME      = TEME
TIME_SYSTEM    = UTC
MEAN_ELEMENT_THEORY = SGP/SGP4

EPOCH          = 2025-12-04T02:18:24.169248
MEAN_MOTION    = 15.75271239
ECCENTRICITY   = .000233
INCLINATION    = 42.9981
RA_OF_ASC_NODE = 244.0713
ARG_OF_PERICENTER = 262.0236
MEAN_ANOMALY   = 98.0369

EPHEMERIS_TYPE = 0
CLASSIFICATION_TYPE = U
NORAD_CAT_ID   = 66596
ELEMENT_SET_NO = 999
REV_AT_EPOCH   = 310
BSTAR          = -.2916E-2
MEAN_MOTION_DOT = -.430767E-2
MEAN_MOTION_DDOT = 0

CCSDS_OMM_VERS = 2.0
CREATION_DATE  = 
ORIGINATOR     = 

OBJECT_NAME    = STARLINK-35820
OBJECT_ID      = 2025-270K
CENTER_NAME    = EARTH
REF_FRAME      = TEME
TIME_SYSTEM    = UTC
MEAN_ELEMENT_THEORY = SGP/SGP4

EPOCH          = 2025-12-04T00:43:40.956096
MEAN_MOTION    = 15.80114671
ECCENTRICITY   = .0020286
INCLINATION    = 42.9983
RA_OF_ASC_NODE = 244.4384
ARG_OF_PERICENTER = 309.2244
MEAN_ANOMALY   = 50.6826

EPHEMERIS_TYPE = 0
CLASSIFICATION_TYPE = U
NORAD_CAT_ID   = 66597
ELEMENT_SET_NO = 999
REV_AT_EPOCH   = 309
BSTAR          = -.14154E-1
MEAN_MOTION_DOT = -.2411074E-1
MEAN_MOTION_DDOT = 0

CCSDS_OMM_VERS = 2.0
CREATION_DATE  = 
ORIGINATOR     = 

OBJECT_NAME    = STARLINK-35981
OBJECT_ID      = 2025-270L
CENTER_NAME    = EARTH
REF_FRAME      = TEME
TIME_SYSTEM    = UTC
MEAN_ELEMENT_THEORY = SGP/SGP4

EPOCH          = 2025-12-04T02:16:54.415200
MEAN_MOTION    = 15.76859458
ECCENTRICITY   = .001773
INCLINATION    = 42.9977
RA_OF_ASC_NODE = 244.0629
ARG_OF_PERICENTER = 256.2952
MEAN_ANOMALY   = 103.5944

EPHEMERIS_TYPE = 0
CLASSIFICATION_TYPE = U
NORAD_CAT_ID   = 66598
ELEMENT_SET_NO = 999
REV_AT_EPOCH   = 283
BSTAR          = .28118E-2
MEAN_MOTION_DOT = .500006E-2
MEAN_MOTION_DDOT = 0

