CZ-3B R/B               
1 66587U 25269B   25336.42831525  .00047329 -24560-6  19543-2 0  9998
2 66587  51.3575 172.0321 7520347 226.8728  39.3228  2.02231820   242
STARLINK-36076          
1 66588U 25270A   25338.09880934 -.00570263  00000+0 -38849-2 0  9999
2 66588  42.9979 244.0933 0003119 251.2496 108.8035 15.75495698  2997
STARLINK-35447          
1 66589U 25270B   25338.09814345 -.00573253  00000+0 -39150-2 0  9991
2 66589  42.9980 244.0882 0001698 276.4997  83.5679 15.75458714  3103
STARLINK-35429          
1 66590U 25270C   25338.09847931 -.00556781  00000+0 -37906-2 0  9994
2 66590  42.9978 244.0913 0001797 269.8771  90.1893 15.75484697  3104
STARLINK-36058          
1 66591U 25270D   25338.09780095 -.00593875  00000+0 -40705-2 0  9998
2 66591  42.9981 244.0858 0002477 274.5012  85.5575 15.75426072  2998
STARLINK-36066          
1 66592U 25270E   25338.16087573 -.00432621  00000+0 -29277-2 0  9990
2 66592  42.9992 243.6972 0002199 265.4989  94.5629 15.75283675  2907
STARLINK-36031          
1 66593U 25270F   25338.09713016 -.00612015  00000+0 -42228-2 0  9999
2 66593  42.9985 244.0801 0001821 274.0987  85.9674 15.75329439  2993
STARLINK-36032          
1 66594U 25270G   25338.15749378  .00395318  00000+0  22053-2 0  9993
2 66594  42.9975 243.6706 0014658 280.4782  79.4436 15.77380004  2810
STARLINK-35711          
1 66595U 25270H   25338.09644852 -.00514801  00000+0 -35171-2 0  9995
2 66595  42.9980 244.0741 0002268 261.4999  98.5613 15.75289023  3103
STARLINK-35811          
1 66596U 25270J   25338.09611307 -.00430767  00000+0 -29160-2 0  9994
2 66596  42.9981 244.0713 0002330 262.0236  98.0369 15.75271239  3108
STARLINK-35820          
1 66597U 25270K   25338.03033514 -.02411074  00000+0 -14154-1 0  9995
2 66597  42.9983 244.4384 0020286 309.2244  50.6826 15.80114671  3094
STARLINK-35981          
1 66598U 25270L   25338.09507425  .00500006  00000+0  28118-2 0  9995
2 66598  42.9977 244.0629 0017730 256.2952 103.5944 15.76859458  2837
